,Name,ID,Lat,Lon,Stn.Name,Stn.stDate,Stn.edDate,State,County,City
1,Lander,USW00024021,42.8153,-108.7261,LANDER WBO,1892-01-01,1946-05-28,Wyoming,Fremont County,Lander
3,Cheyenne,USW00024018,41.1519,-104.8061,CHEYENNE WBO,1871-01-01,1935-08-31,Wyoming,Laramie County,Cheyenne
5,Wausau,USW00014897,44.9258,-89.6256,Wausau Record Herald,1896-01-01,1941-12-31,Wisconsin,Marathon County,Rib Mountain
7,Hayward,USW00094973,46.0261,-91.4442,Hayward RS,1894-01-01,1998-03-31,Wisconsin,Sawyer County,Hayward
9,EauClaire,USW00014991,44.8664,-91.4878,Eau Claire City,1893-01-01,1949-09-30,Wisconsin,Chippewa County,Eau Claire
11,Ashland,USW00094929,46.5486,-90.9189,Ashland Exp Farm,1894-01-01,1998-10-13,Wisconsin,Ashland County,Ashland
13,Milwaukee,USW00014839,42.955,-87.9044,MILWAUKEE WBO,1871-01-01,1941-02-28,,,
15,Madison,USW00014837,43.1406,-89.3453,MADISON WB CITY,1869-01-01,1946-12-31,Wisconsin,Dane County,Madison
17,LaCrosse,USW00014920,43.8789,-91.2528,LA CROSSE,1873-01-01,1950-12-31,Wisconsin,La Crosse County,La Crosse
21,GreenBay,USW00014898,44.4983,-88.1111,GREEN BAY AUSTIN STRAUBEL INTL,1897-01-01,2021-12-31,Wisconsin,Brown County,Ashwaubenon
22,Bluefield,USW00003859,37.2958,-81.2078,Bluefield 2NW,1892-01-01,1959-08-31,West Virginia,Mercer County,Bluefield
24,Morgantown,USW00013736,39.6428,-79.9164,Morgantown 1,1873-01-01,1946-07-31,West Virginia,Monongalia County,Morgantown
26,Wheeling,USW00014894,40.1764,-80.6472,Wellsburg Water Treatment Plant,1879-01-01,1948-07-31,West Virginia,Ohio County,Wheeling
28,Huntington,USW00003860,38.365,-82.555,HUNTINGTON 1,1892-01-01,1941-03-31,West Virginia,Wayne County,Huntington
31,Charleston,USW00013866,38.3794,-81.59,CHARLESTON 1,1893-01-01,1937-04-01,West Virginia,Kanawha County,Charleston
34,Beckley,USW00003872,37.7836,-81.1231,BECKLEY VA HOSPITAL,1894-01-01,1963-04-30,West Virginia,Raleigh County,Beckley
36,Vancouver,USW00094298,45.6208,-122.6572,Vancouver 4NNE,1856-01-01,1996-09-14,Washington,Clark County,Vancouver
38,Pullman,USW00094129,46.7439,-117.1086,Pullman Exp Stn,1893-01-01,1949-12-31,Washington,Whitman County,Pullman
41,TriCities,USW00024163,46.2667,-119.1167,Kennewick,1895-01-01,1998-03-31,Washington,Franklin County,Pasco
43,Spokane,USW00024157,47.6217,-117.5281,SPOKANE INTERNATIONAL AP,1882-01-01,2021-12-31,Washington,Spokane County,Spokane
44,Seattle,USW00024233,47.4444,-122.3139,SEATTLE CITY OFFICE,1894-01-01,1944-12-31,Washington,King County,SeaTac
46,Richmond,USW00013740,37.505,-77.3203,RICHMOND CHIMBORAZO,1887-01-01,1929-12-31,Virginia,Henrico County,Richmond
48,NorfolkVA,USW00013737,36.9033,-76.1922,NORFOLK WBO,1874-01-01,1945-12-31,,,
50,Lynchburg,USW00013733,37.3208,-79.2067,LYNCHBURG WBO,1893-01-01,1944-07-31,Virginia,Campbell County,Lynchburg
52,Burlington,USW00014742,44.4683,-73.15,BURLINGTON CITY,1884-01-01,1943-06-03,Vermont,Chittenden County,South Burlington
54,SaltLakeCity,USW00024127,40.7781,-111.9694,SALT LAKE CITY DOWNTOWN,1875-01-01,1928-04-30,Utah,Salt Lake County,Salt Lake City
56,CollegeStation,USW00003904,30.5892,-96.3647,College Station 6 SW,1883-01-01,1951-07-31,Texas,Brazos County,College Station
58,SanAntonio,USW00012921,29.5442,-98.4839,SAN ANTONIO WBO,1886-01-01,1940-12-31,Texas,Bexar County,San Antonio
61,Houston,USW00012960,29.98,-95.36,HOUSTON WB CITY,1889-01-01,1969-05-31,Texas,Harris County,Houston
63,Galveston,USW00012923,29.2733,-94.8592,GALVESTON,1872-01-01,1996-12-31,Texas,Galveston County,Galveston
65,ElPaso,USW00023044,31.8111,-106.3758,EL PASO,1879-01-01,1942-11-30,Texas,El Paso County,El Paso
67,DallasFortWorth,USW00003927,32.8978,-97.0189,FORT WORTH CITY OFFICES,1899-01-01,1940-01-04,Texas,Dallas County,Irving
71,CorpusChristi,USW00012924,27.8,-97.4,CORPUS CHRISTI CITY,1888-01-01,1942-10-14,Texas,Nueces County,Corpus Christi
73,Austin,USW00013958,30.3208,-97.7603,AUSTIN WBO,1898-01-01,1942-07-31,Texas,Travis County,Austin
75,Amarillo,USW00023047,35.2333,-101.7089,AMARILLO CITY,1892-01-01,1941-03-31,Texas,Potter County,Amarillo
77,Abilene,USW00013962,32.4106,-99.6822,ABILENE CITY,1886-01-01,1944-02-29,Texas,Taylor County,Abilene
79,Nashville,USW00013897,36.1189,-86.6892,NASHVILLE CITY,1872-01-01,1939-12-31,Tennessee,Davidson County,Nashville-Davidson
81,Memphis,USW00013893,35.0564,-89.9864,MEMPHIS,1872-01-01,1939-12-31,Tennessee,Shelby County,Memphis
83,Chattanooga,USW00013882,35.0311,-85.2014,CHATTANOOGA WB CITY,1879-01-01,1940-06-30,Tennessee,Hamilton County,Chattanooga
85,Mitchell,USW00094950,43.7667,-98.0333,Mitchell 2 N,1893-01-01,1999-08-31,South Dakota,Davison County,Mitchell
87,SiouxFalls,USW00014944,43.5878,-96.7289,SIOUX FALLS FOSS FIELD,1893-01-01,2021-12-31,South Dakota,Minnehaha County,Sioux Falls
88,Huron,USW00014936,44.3981,-98.2231,HURON REGIONAL ARPT,1882-01-01,2021-12-31,South Dakota,Beadle County,Huron
89,Aberdeen,USW00014929,45.4558,-98.4131,ABERDEEN REGIONAL ARPT,1893-01-01,2021-12-31,South Dakota,Brown County,Aberdeen
90,Aiken,USC00380072,33.55,-81.6969,Aiken 5 SE,1893-01-01,2008-11-01,South Carolina,Aiken County,Aiken
92,GreenvilleSpartanburg,USW00013886,34.8461,-82.3461,GREENVILLE DOWNTOWN,1885-01-01,1962-10-14,South Carolina,Greenville County,Greenville
94,ColumbiaSC,USW00013883,33.9486,-81.1186,COLUMBIA CITY SC,1888-01-01,1947-12-31,South Carolina,Lexington County,ColumbiaSC
96,Williamsport,USW00014778,41.2433,-76.9217,WILLIAMSPORT,1896-01-01,1944-12-31,Pennsylvania,Lycoming County,Montoursville
98,Pittsburgh,USW00094823,40.4847,-80.2144,PITTSBURGH CITY,1871-01-01,1935-06-30,Pennsylvania,Allegheny County,Moon Township
101,Philadelphia,USW00013739,39.8683,-75.2311,PHILADELPHIA WBO,1872-01-01,1940-06-19,Pennsylvania,Delaware County,Tinicum Township
103,MiddletownHarrisburg,USW00014711,40.1936,-76.7633,HARRISBURG CITY,1889-01-01,1938-12-31,Pennsylvania,Dauphin County,MiddletownHarrisburg
106,Erie,USW00014860,42.08,-80.1825,ERIE CITY,1874-01-01,1953-07-31,Pennsylvania,Erie County,Erie
108,KlamathFalls,USW00094236,42.1469,-121.7242,Klamath Falls 2SSW,1898-01-01,2000-07-30,Oregon,Klamath County,Klamath Falls
110,Portland,USC00356749,45.5181,-122.6894,PORTLAND RFC CITY,1875-01-01,1973-06-30,Oregon,Multnomah County,Portland
112,Salem,USW00024232,44.905,-123.0011,SALEM MCNARY FIELD,1893-01-01,2021-12-31,Oregon,Marion County,Salem
113,Pendleton,USW00024155,45.6906,-118.8528,PENDLETON DOWNTOWN,1893-01-01,1934-02-02,Oregon,Umatilla County,Pendleton
115,EUGENE,USW00024221,44.1278,-123.2206,EUGENE,1893-01-01,1939-12-31,Oregon,Lane County,EUGENE
117,Astoria,USW00094224,46.1569,-123.8825,ASTORIA,1893-01-01,1952-12-31,Oregon,Clatsop County,Warrenton
119,Stillwater,USW00003965,36.1625,-97.0894,Stillwater 2W,1893-01-01,1998-03-31,Oklahoma,Payne County,Stillwater
121,Tulsa,USW00013968,36.1994,-95.8872,TULSA CITY,1894-01-01,1930-12-31,Oklahoma,Tulsa County,Tulsa
123,Oklahoma,USW00013967,35.3889,-97.6006,OKLAHOMA CITY WBO,1891-01-01,1953-12-31,Oklahoma,Oklahoma County,Oklahoma City
125,Zaneville,USW00093824,39.9444,-81.8922,Philo 3 SW,1896-01-01,1945-12-31,Ohio,Muskingum County,Zaneville
127,Toledo,USW00094830,41.5886,-83.8014,TOLEDO BLADE,1871-01-01,1939-06-30,Ohio,Lucas County,Toledo
130,Dayton,USW00093815,39.9061,-84.2186,DAYTON MCD,1894-01-01,1947-12-31,Ohio,Miami County,Dayton
132,ColumbusOH,USW00014821,39.9914,-82.8808,COLUMBUS,1879-01-01,1947-12-31,Ohio,Franklin County,Columbus
134,Cleveland,USW00004853,41.5175,-81.6836,CLEVELAND WB CITY,1871-01-01,1941-05-31,Ohio,Cuyahoga County,Cleveland
136,Cincinnati,USW00093812,39.1033,-84.4189,CINCINNATI ABBE WSO,1871-01-01,1947-03-31,Ohio,Hamilton County,Cincinnati
138,Akron,USW00014895,40.9167,-81.4333,AKRON FULTON INTERNATIONAL AP,1888-01-01,1948-06-30,Ohio,Summit County,Green
140,Williston,USW00094014,48.1739,-103.6367,WILLISTON WBO,1894-01-01,1948-06-30,North Dakota,Williams County,Williston
142,GrandForks,USW00014916,47.9428,-97.1839,GRAND FORKS UNIV NWS,1893-01-01,1965-03-31,North Dakota,Grand Forks County,Grand Forks
144,Fargo,USW00014914,46.9253,-96.8111,MOORHEAD WBO,1881-01-01,1942-01-31,North Dakota,Cass County,Fargo
146,Bismarck,USW00024011,46.7708,-100.7603,BISMARCK MUNICIPAL ARPT,1875-01-01,2021-12-31,North Dakota,Burleigh County,Bismarck
147,Raleigh,USW00013722,35.8922,-78.7819,RALEIGH CITY,1887-01-01,1944-05-17,North Carolina,Wake County,Raleigh
149,Charlotte,USW00013881,35.2236,-80.9553,CHARLOTTE CITY,1879-01-01,1948-08-31,North Carolina,Mecklenburg County,Charlotte
151,CapeHatteras,USW00093729,35.2325,-75.6219,HATTERAS,1893-01-01,1957-02-28,North Carolina,Dare County,CapeHatteras
153,Asheville,USW00003812,35.4319,-82.5375,ASHEVILLE ASTON,1870-01-01,1876-07-31,North Carolina,Buncombe County,Asheville
156,GlensFalls,USW00014750,43.35,-73.6167,Glens Farm Fire Sta,1893-01-01,1944-04-30,New York,Warren County,Town of Queensbury
158,RochesterNY,USW00014768,43.1167,-77.6767,ROCHESTER CITY,1871-01-01,1940-09-30,New York,Monroe County,City of Rochester
160,NewYork,USW00094728,40.7789,-73.9692,NEW YORK CENTRAL PARK OBS,1869-01-01,2021-12-31,New York,New York County,City of New York
161,Buffalo,USW00014733,42.9486,-78.7369,BUFFALO CITY,1871-01-01,1943-06-30,New York,Erie County,Town of Cheektowaga
163,Albany,USW00014735,42.7431,-73.8092,ALBANY,1874-01-01,1938-05-31,New York,Albany County,Town of Colonie
165,Roswell,USW00023009,33.3075,-104.5083,ROSWELL MUNI AP,1893-01-01,1972-11-30,New Mexico,Chaves County,Roswell
167,Clayton,USW00023051,36.4486,-103.1539,CLAYTON MUNICIPAL AIRPARK,1897-01-01,2021-12-31,New Mexico,Union County,Clayton
168,Albuquerque,USW00023050,35.0419,-106.6156,ALBUQUERQUE INTL ARPT,1892-01-01,2021-12-31,New Mexico,Bernalillo County,Albuquerque
169,Belvidere,USC00280734,40.8292,-75.0833,Belvidere,1893-01-01,1981-10-31,New Jersey,Warren County,Belvidere
171,NewBrunswick,USC00286055,40.4728,-74.4225,New Brunswick,1893-01-01,1911-12-31,New Jersey,Middlesex County,NewBrunswick
174,Trenton,USW00014792,40.2769,-74.8158,Trenton Nottinghamwa,1866-01-01,1913-03-31,New Jersey,Mercer County,Ewing Township
177,Manchester,USW00014710,42.9333,-71.4383,Manchester,1886-01-01,1948-06-05,New Hampshire,Hillsborough County,Manchester
181,Concord,USW00014745,43.1953,-71.5011,CONCORD CITY,1868-01-01,1941-04-30,New Hampshire,Merrimack County,Concord
183,Winnemucca,USW00024128,40.9017,-117.8081,WINNEMUCCA WB CITY,1878-01-01,1949-09-14,Nevada,Humboldt County,Winnemucca
185,Reno,USW00023185,39.4839,-119.7711,RENO WBO,1893-01-01,1937-02-28,Nevada,Washoe County,Reno
187,Ely,USW00023154,39.2953,-114.8467,ELY YELLAND FIELD,1889-01-01,2021-12-31,Nevada,White Pine County,Ely
188,Elko,USW00024121,40.8289,-115.7886,ELKO REGIONAL AP,1889-01-01,2021-12-31,Nevada,Elko County,Elko
189,McCook,USW00094040,40.2064,-100.5914,McCook,1895-01-01,1967-09-12,Nebraska,Red Willow County,McCook
193,Hastings,USW00094949,40.6044,-98.4272,Hastings 4N,1895-01-01,2002-08-31,Nebraska,Adams County,Hastings
195,Valentine,USW00024032,42.8783,-100.55,VALENTINE MILLER FIELD,1890-01-01,2021-12-31,Nebraska,Cherry County,Valentine
196,Scottsbluff,USW00024028,41.8706,-103.5931,SCOTTSBLUFF W B HEILIG FIELD A,1893-01-01,2021-12-31,Nebraska,Scotts Bluff County,Scottsbluff
197,Omaha,USW00014942,41.3103,-95.8992,OMAHA WBO,1871-01-01,1935-05-31,Nebraska,Douglas County,Omaha
201,NorfolkNE,USW00014941,41.9856,-97.4353,NORFOLK,1894-01-01,1946-10-04,Nebraska,Madison County,NorfolkNE
203,NorthPlatte,USW00024023,41.1214,-100.6694,NORTH PLATTE,1875-01-01,1947-12-31,Nebraska,Lincoln County,NorthPlatte
205,Lincoln,USW00014939,40.8508,-96.7475,LINCOLN UNIV CAMPUS,1887-01-01,1947-12-31,Nebraska,Lancaster County,Lincoln
210,GrandIsland,USW00014935,40.9611,-98.3136,GRAND ISLAND,1896-01-01,1919-07-31,Nebraska,Hall County,Grand Island
213,Missoula,USW00024153,46.9208,-114.0925,MISSOULA 6 NW WFO,1894-01-01,1947-12-31,Montana,Missoula County,Missoula
215,Helena,USW00024144,46.6056,-111.9636,HELENA WBO,1881-01-01,1940-04-30,Montana,Lewis and Clark County,Helena
217,Havre,USW00094012,48.5428,-109.7633,HAVRE,1880-01-01,1961-01-31,Montana,Hill County,Havre
219,GreatFalls,USW00024143,47.4733,-111.3822,GREAT FALLS 16ST,1892-01-01,1937-03-31,Montana,Cascade County,Great Falls
221,Glasgow,USW00094008,48.2138,-106.6213,GLASGOW 2,1894-01-01,1947-12-31,Montana,Valley County,Glasgow
223,Jefferson,USW00003963,38.5911,-92.1558,Jefferson City Water Plant,1895-01-01,1997-05-31,Missouri,Callaway County,Jefferson City
225,StLouis,USW00013994,38.7525,-90.3736,ST LOUIS EADS BRIDGE,1893-01-01,1929-12-31,Missouri,Saint Louis County,StLouis
227,SpringfieldMO,USW00013995,37.2353,-93.4003,SPRINGFIELD - MO,1888-01-01,1896-12-31,Missouri,Greene County,Springfield
230,KansasCity,USW00003947,39.2972,-94.7306,KANSAS CITY,1889-01-01,1933-12-31,Missouri,Platte County,Kansas City
233,ColumbiaMO,USW00003945,38.8169,-92.2183,COLUMBIA REGIONAL AIRPORT,1890-01-01,2021-12-31,Missouri,Boone County,ColumbiaMO
234,Gulfport,USW00093874,30.4119,-89.0808,Biloxi,1894-01-01,1956-06-29,Mississippi,Harrison County,Gulfport
237,Hattiesburg,USW00013833,31.2819,-89.2531,Hattiesburg 5 SW,1893-01-01,2000-07-31,Mississippi,Forrest County,Hattiesburg
239,Meridian,USW00013865,32.3347,-88.7442,MERIDIAN WBO,1890-01-01,1944-05-31,Mississippi,Lauderdale County,Meridian
241,Jackson,USW00003940,32.3206,-90.0778,JACKSON,1896-01-01,1963-07-07,Mississippi,Rankin County,Jackson
243,SaintCloud,USW00014926,45.5433,-94.0514,ST CLOUD NORMAL SCHOOL,1894-01-01,1903-09-30,Minnesota,Sherburne County,St. Cloud
245,RochesterMN,USW00014925,43.9042,-92.4917,ROCHESTER INTERNATIONAL ARPT,1887-01-01,2021-12-31,Minnesota,Olmsted County,Rochester
246,Minneapolis,USW00014922,44.8831,-93.2289,ST PAUL SIGNAL SERVICE,1871-01-01,1891-04-30,Minnesota,Hennepin County,Minneapolis
249,InternationalFalls,USW00014918,48.5614,-93.3981,INTERNATIONAL FALLS INTL AP,1896-01-01,2021-12-31,Minnesota,Koochiching County,InternationalFalls
250,Duluth,USW00014913,46.8369,-92.2097,DULUTH,1872-01-01,1941-05-31,Minnesota,Saint Louis County,Duluth
252,Kalamazoo,USW00094815,42.2347,-85.5519,Kalamazoo State Hospital,1888-01-01,1995-11-30,Michigan,Kalamazoo County,Kalamazoo
254,Saginaw,USW00014845,43.5331,-84.0797,Saginaw,1898-01-01,2021-12-31,Michigan,Saginaw County,Saginaw
255,SaultSteMarie,USW00014847,46.4794,-84.3572,SAULT STE MARIE SANDERSON FIELD,1889-01-01,2021-12-31,Michigan,Chippewa County,Sault Ste. Marie
256,Muskegon,USW00014840,43.1711,-86.2367,MUSKEGON COUNTY ARPT,1897-01-01,2021-12-31,Michigan,Muskegon County,Norton Shores
257,Marquette,USW00094850,46.5311,-87.5483,MARQUETTE CITY,1872-01-01,1978-12-31,Michigan,Marquette County,Marquette
259,Lansing,USW00014836,42.7803,-84.5789,EAST LANSING,1864-01-01,1948-04-30,Michigan,Clinton County,Lansing
263,GrandRapids,USW00094860,42.8939,-85.5447,GRAND RAPIDS,1893-01-01,1940-12-31,Michigan,Kent County,Cascade Charter Township
266,Detroit,USW00094847,42.2314,-83.3308,DETROIT CITY,1874-01-01,1933-12-31,Michigan,Wayne County,Romulus
269,Worcester,USW00094746,42.2706,-71.8731,WORCESTER,1892-01-01,1948-05-31,Massachusetts,Worcester County,Worcester
271,Milton,USW00014753,42.2122,-71.1136,EAST MILTON BLUE HILL OBSERVAT,1893-01-01,2021-12-31,Massachusetts,Norfolk County,Milton
272,Boston,USW00014739,42.3606,-71.0106,BOSTON CITY WSO,1872-01-01,1935-12-31,Massachusetts,Suffolk County,Boston
274,Baltimore,USW00093721,39.1836,-76.6542,BALTIMORE CUSTOMS HOUSE,1871-01-01,1950-07-22,Maryland,Anne Arundel County,Ferndale
276,PortlandME,USW00014764,43.6497,-70.3003,PORTLAND CITY,1872-01-01,1940-11-24,Maine,Cumberland County,Portland
278,Natchitoches,USC00166584,31.8142,-93.0856,Natchitoches,1894-01-01,2010-07-31,Louisiana,Natchitoches Parish,Natchitoches
280,Monroe,USW00013942,32.5156,-92.0406,Monroe #2,1893-01-01,1929-12-31,Louisiana,Ouachita Parish,Monroe
282,Shreveport,USW00013957,32.4506,-93.8411,SHREVEPORT CITY,1872-01-01,1941-09-30,Louisiana,Caddo Parish,Shreveport
284,LakeCharles,USW00003937,30.125,-93.2158,LAKE CHARLES DOWNTOWN,1895-01-01,1939-02-11,Louisiana,Calcasieu Parish,LakeCharles
287,BatonRouge,USW00013970,30.5372,-91.1469,BATON ROUGE,1893-01-01,1929-12-31,Louisiana,East Baton Rouge Parish,Baton Rouge
289,Louisville,USW00093821,38.1811,-85.7392,LOUISVILLE WBO,1873-01-01,1945-06-30,Kentucky,Jefferson County,Louisville
294,Lexington,USW00093820,38.0408,-84.6058,LEXINGTON BLUEGRASS AP,1873-01-01,2021-12-31,Kentucky,Fayette County,Lexington
295,Topeka,USW00013996,39.0725,-95.6261,TOPEKA WBO,1888-01-01,1946-07-31,Kansas,Shawnee County,Topeka
297,Goodland,USW00023065,39.3669,-101.7,GOODLAND RENNER FIELD,1896-01-01,2021-12-31,Kansas,Sherman County,Goodland
298,DodgeCity,USW00013985,37.7608,-99.9683,DODGE CITY DOWNTOWN,1875-01-01,1942-06-30,Kansas,Ford County,Dodge City
300,Concordia,USW00013984,39.5514,-97.6508,CONCORDIA BLOSSER MUNI AP,1886-01-01,2021-12-31,Kansas,Cloud County,Concordia
301,CedarRapids,USW00014990,41.8833,-91.7167,Cedar Rapids #1,1893-01-01,1953-05-31,Iowa,Linn County,Cedar Rapids
303,Spencer,USW00014972,43.1644,-95.2021,Spencer 1 N,1896-01-01,1998-03-31,Iowa,Clay County,Spencer
305,Waterloo,USW00094910,42.5544,-92.4011,WATERLOO,1895-01-01,1950-02-28,Iowa,Black Hawk County,Waterloo
307,SiouxCity,USW00014943,42.3914,-96.3792,SIOUX CITY,1890-01-01,1895-12-31,Iowa,Woodbury County,Sioux City
309,Dubuque,USW00094908,42.3978,-90.7036,DUBUQUE RIVER,1874-01-01,1951-01-31,Iowa,Dubuque County,Dubuque
311,DesMoines,USW00014933,41.5339,-93.6531,DES MOINES SE 6TH,1879-01-01,1939-08-31,Iowa,Polk County,Des Moines
313,SouthBend,USW00014848,41.7072,-86.3164,SOUTH BEND MICHIANA RGNL AP,1894-01-01,2021-12-31,Indiana,Saint Joseph County,South Bend
314,Indianapolis,USW00093819,39.7075,-86.2803,INDIANAPOLIS WB CITY,1872-01-01,1942-12-31,Indiana,Marion County,Indianapolis
316,FortWayne,USW00014827,40.9706,-85.2064,FORT WAYNE CITY,1898-01-01,1940-11-13,Indiana,Allen County,Fort Wayne
318,Evansville,USW00093817,38.0442,-87.5206,EVANSVILLE REGIONAL AP,1897-01-01,2021-12-31,Indiana,Vanderburgh County,Evansville
319,Springfield,USW00093822,39.8447,-89.6839,SPRINGFIELD,1880-01-01,1947-12-31,Illinois,Sangamon County,Springfield
321,Rockford,USW00094822,42.1928,-89.0931,ROCKFORD,1893-01-01,1947-12-31,Illinois,Winnebago County,Rockford
323,Peoria,USW00014842,40.6675,-89.6839,PEORIA,1883-01-01,1905-01-31,Illinois,Peoria County,Peoria
326,Moline,USW00014923,41.4653,-90.5233,DAVENPORT WBO CITY,1872-01-01,1931-12-31,Illinois,Rock Island County,Moline
332,Chicago,USW00094846,41.995,-87.9336,CHICAGO,1871-01-01,1925-12-01,Illinois,Cook County,Chicago
336,Lewiston,USW00024149,46.3747,-117.0156,LEWISTON,1882-01-01,1947-12-31,Idaho,Nez Perce County,Lewiston
338,Boise,USW00024131,43.5667,-116.2406,BOISE CITY,1875-01-01,1939-12-31,Idaho,Ada County,Boise
340,Savannah,USW00003822,32.13,-81.21,SAVANNAH CITY,1871-01-01,1945-04-30,Georgia,Chatham County,Savannah
343,Macon,USW00003813,32.6847,-83.6528,MACON,1893-01-01,1899-04-07,Georgia,Bibb County,Macon
346,ColumbusGA,USW00093842,32.5161,-84.9422,COLUMBUS GA,1892-01-01,1947-12-31,Georgia,Muscogee County,Columbus
348,Augusta,USW00003820,33.3644,-81.9633,AUGUSTA CITY,1872-01-01,1944-03-31,Georgia,Richmond County,Augusta
351,Atlanta,USW00013874,33.63,-84.4417,ATLANTA WSO CITY,1879-01-01,1928-08-31,Georgia,Clayton County,College Park
353,Athens,USW00013873,33.9481,-83.3275,ATHENS,1858-01-01,1944-05-31,Georgia,Athens-Clarke County,Athens-Clarke County Unified Government
355,WestPalmBeach,USW00012844,26.6847,-80.0994,JUPITER-HYPOLUXO,1889-01-01,1999-12-01,Florida,Palm Beach County,WestPalmBeach
365,Tampa,USW00012842,27.9619,-82.5403,TAMPA WBO,1891-01-01,1940-12-31,Florida,Hillsborough County,Tampa
368,Tallahassee,USW00093805,30.3975,-84.3289,TALLAHASSEE,1893-01-01,1942-07-31,Florida,Leon County,Tallahassee
370,Pensacola,USW00013899,30.4781,-87.1869,PENSACOLA WBO,1880-01-01,1948-06-30,Florida,Escambia County,Pensacola
372,Orlando,USW00012815,28.4339,-81.325,ORLANDO MUNI AP,1892-01-01,1974-01-31,Florida,Orange County,Orlando
374,Miami,USW00012839,25.7906,-80.3164,MIAMI,1896-01-01,1939-01-31,Florida,Miami-Dade County,Miami
376,KeyWest,USW00012836,24.555,-81.7522,KEY WEST WB CITY,1871-01-01,1958-02-28,Florida,Monroe County,Key West
378,Jacksonville,USW00013889,30.4844,-81.7019,JACKSONVILLE WBO,1872-01-01,1955-12-31,Florida,Duval County,Jacksonville
380,Gainesville,USW00012816,29.6919,-82.2756,GAINESVILLE UNIV OF,1891-01-01,1957-05-31,Florida,Alachua County,Gainesville
385,FortMyers,USW00012835,26.585,-81.8614,FORT MYERS PAGE FIELD,1892-01-01,2021-12-31,Florida,Lee County,Fort Myers
386,WashingtonDC,USW00013743,38.8483,-77.0342,WASHINGTON WB CITY,1871-01-01,1945-06-30,Virginia,Arlington County,Arlington
388,Wilmington,USW00013781,39.6728,-75.6008,WILMINGTON CITY HALL,1894-01-01,1931-12-31,Delaware,New Castle County,New Castle
391,Pueblo,USW00093058,38.29,-104.4983,PUEBLO WB AIRPORT,1889-01-01,1954-06-15,Colorado,Pueblo County,Pueblo
393,GrandJunction,USW00023066,39.1342,-108.54,GRAND JUNCTION,1893-01-01,1899-12-31,Colorado,Mesa County,Grand Junction
395,Denver,USW00003017,39.8328,-104.6575,DENVER WSO CITY,1872-01-01,1949-12-31,,,
398,ColoradoSprings,USW00093037,38.81,-104.6883,COLORADO SPRINGS,1895-01-01,1947-07-31,Colorado,El Paso County,Colorado Springs
400,CrescentCity,USW00024286,41.7803,-124.2367,CRESCENT CITY 3NNW,1895-01-01,2000-07-31,California,Del Norte County,CrescentCity
402,Escondido,USC00042863,33.1211,-117.09,Escondido,1894-01-01,1979-03-31,California,San Diego County,Escondido
404,Ukiah,USW00023275,39.1258,-123.2008,Ukiah,1893-01-01,2000-07-31,California,Mendocino County,Ukiah
406,Sacramento,USW00023271,38.5553,-121.4183,SACRAMENTO 5 ESE,1878-01-01,2021-12-31,California,Sacramento County,Sacramento
407,Riverside,USW00003171,33.9519,-117.4386,Riverside Fire Sta 3,1893-01-01,2008-12-31,California,Riverside County,Riverside
409,Needles,USW00023179,34.7675,-114.6189,Needles,1889-01-01,1940-03-09,California,San Bernardino County,Needles
411,SanDiego,USW00023188,32.7336,-117.1831,SAN DIEGO WBO,1851-01-01,1939-06-30,California,San Diego County,San Diego
413,Redding,USW00024257,40.5175,-122.2986,REDDING WSO,1893-01-01,1944-07-31,California,Shasta County,Redding
417,LosAngeles,USW00093134,34.0511,-118.2353,LOS ANGELES DOWNTOWN USC CAMPU,1878-01-01,2021-12-31,California,Los Angeles County,Los Angeles
418,Fresno,USW00093193,36.78,-119.7194,FRESNO CITY OFFICES,1882-01-01,1939-06-30,California,Fresno County,Fresno
421,Eureka,USW00024213,40.8097,-124.1603,EUREKA,1887-01-01,2021-12-31,California,Humboldt County,Eureka
422,Bakersfield,USW00023155,35.4344,-119.0542,BAKERSFIELD,1893-01-01,1937-09-30,California,Kern County,Bakersfield
424,Russellville,USW00053920,35.2578,-93.0947,Russellville,1893-01-01,1909-07-31,Arkansas,Pope County,Russellville
429,PineBluff,USW00093988,34.175,-91.9347,Pine Bluff,1885-01-01,1948-09-30,Arkansas,Jefferson County,Pine Bluff
433,Jonesboro,USW00003953,35.8311,-90.6464,Jonesboro 2 NE,1891-01-01,1998-10-31,Arkansas,Craighead County,Jonesboro
435,Harrison,USW00013971,36.2667,-93.1567,Harrison,1892-01-01,1975-02-28,Arkansas,Boone County,Harrison
437,LittleRock,USW00013963,34.7272,-92.2389,LITTLE ROCK ST CAPITOL,1876-01-01,1942-04-30,Arkansas,Pulaski County,Little Rock
439,FortSmith,USW00013964,35.3331,-94.3625,FORT SMITH,1883-01-01,1945-09-26,Arkansas,Sebastian County,Fort Smith
441,Yuma,USW00003145,32.65,-114.6167,YUMA WB CITY,1876-01-01,1949-07-31,Arizona,Yuma County,Yuma
444,Tucson,USW00023160,32.1314,-110.9553,TUCSON WBO,1895-01-01,1948-10-14,Arizona,Pima County,Tucson
446,Phoenix,USW00023183,33.4278,-112.0039,PHOENIX CITY,1896-01-01,1953-09-30,Arizona,Maricopa County,Phoenix
448,Flagstaff,USW00003103,35.1442,-111.6664,FLAGSTAFF WB CITY,1899-01-01,1950-01-11,Arizona,Coconino County,Flagstaff
450,MuscleShoals,USW00013896,34.7442,-87.5997,Florence,1893-01-01,1940-11-30,Alabama,Colbert County,MuscleShoals
452,Montgomery,USW00013895,32.2997,-86.4075,MONTGOMERY WB CITY,1873-01-01,1947-12-31,Alabama,Montgomery County,Montgomery
454,Mobile,USW00013838,30.6264,-88.0681,MOBILE WB CITY,1871-01-01,1947-12-31,Alabama,Mobile County,Mobile
456,Huntsville,USW00003856,34.6439,-86.7861,MADISON,1895-01-01,1936-12-31,Alabama,Madison County,Huntsville
460,Birmingham,USW00013876,33.5656,-86.745,BIRMINGHAM,1896-01-01,1903-12-31,Alabama,Jefferson County,Birmingham
